CZ-2C R/B               
1 28480U 04046B   25334.75804979  .00000205  00000+0  90931-4 0  9994
2 28480  98.1979 250.8813 0140756  87.4536 274.2750 14.26932182 94390
ARIANE 5 R/B            
1 28499U 04049H   25334.72610806  .00000983  00000+0  11563-3 0  9994
2 28499  98.2518 134.5771 0083697 312.4108  47.0044 14.84967708131106
CZ-2D R/B               
1 28738U 05024B   25334.60625683  .00025372  00000+0  41749-3 0  9998
2 28738  97.3638 341.7443 0007272  43.5917 316.5909 15.52315583124377
ALOS (DAICHI)           
1 28931U 06002A   25334.84722192  .00001623  00000+0  28256-3 0  9990
2 28931  98.1074 286.4200 0000726  96.2978 263.8310 14.69427073 58966
H-2A R/B                
1 28932U 06002B   25334.62751426  .00011192  00000+0  59491-3 0  9996
2 28932  98.2305 108.3905 0054446 217.4980 142.2447 15.14184549 79432
RESURS-DK 1             
1 29228U 06021A   25334.79075907  .00003322  00000+0  19886-3 0  9997
2 29228  69.9321 132.7138 0007780 267.2577  92.7698 15.12049956 72572
CZ-4B R/B               
1 29507U 06046C   25334.62238634  .00005076  00000+0  26680-3 0  9992
2 29507  97.5758  14.7941 0032643 249.8355 109.9364 15.15679313 45031
CZ-2C R/B               
1 31114U 07010B   25334.74172897  .00000160  00000+0  92785-4 0  9991
2 31114  98.3970  87.9966 0058349 221.0868 138.5908 14.20201515965677
COSMO-SKYMED 1          
1 31598U 07023A   25334.81311557  .00004338  00000+0  39567-3 0  9996
2 31598  97.8849 160.1349 0001569  85.5535 274.5865 14.95627947   123
COSMOS 2428             
1 31792U 07029A   25334.63192053 -.00000065  00000+0 -89919-5 0  9999
2 31792  70.9374  51.3006 0003003  42.7382 317.3972 14.12886493950104
SL-16 R/B               
1 31793U 07029B   25334.51910439 -.00000152  00000+0 -54158-4 0  9996
2 31793  70.9773  20.8469 0002451 266.1146 194.3041 14.14816720951343
KORONAS-FOTON           
1 33504U 09003A   25334.61143642  .00013207  00000+0  32076-3 0  9994
2 33504  82.4327  18.6689 0012455 147.7285 212.4726 15.40787287930478
CZ-2C R/B               
1 37731U 11030B   25334.83080766  .00001930  00000+0  25145-3 0  9993
2 37731  97.8391 289.2030 0051910 313.4089  76.3144 14.80834446775464
H-2A R/B                
1 38341U 12025E   25334.85512497  .00003115  00000+0  29081-3 0  9999
2 38341  98.4575 289.1714 0043856 276.6061  83.0166 14.94320781733450
SHIJIAN-16 (SJ-16)      
1 39358U 13057A   25334.86748854  .00002039  00000+0  20369-3 0  9997
2 39358  74.9741  12.1178 0017258 347.9085  12.1686 14.91937926656766
SL-4 R/B                
1 39679U 14021B   25334.77810615  .00014979  00000+0  35983-3 0  9994
2 39679  51.6062  98.7069 0102872 103.1949 258.0535 15.36207421641057
ALOS-2                  
1 39766U 14029A   25334.83960149  .00002012  00000+0  27599-3 0  9993
2 39766  97.9232  69.8550 0001366  99.6181 260.5185 14.79499458622252
YAOGAN-29               
1 41038U 15069A   25334.87605324  .00000495  00000+0  67853-4 0  9999
2 41038  98.0230 358.0091 0000949  13.6187 346.5051 14.82860926541239
ASTRO-H (HITOMI)        
1 41337U 16012A   25334.85222751  .00003478  00000+0  20742-3 0  9996
2 41337  31.0002 274.0015 0009481  57.5962 302.5592 15.09232522537283
HXMT (HUIYAN)           
1 42758U 17034A   25334.86664503  .00005237  00000+0  27542-3 0  9995
2 42758  43.0135 205.5092 0033277 327.9773  31.9053 15.16092384467532
CZ-2C R/B               
1 43521U 18054D   25334.16482381  .00108571  00000+0  81451-3 0  9996
2 43521  35.1342 265.9782 0018773  12.2682 347.8505 15.71049687413076
SAOCOM 1A               
1 43641U 18076A   25334.85756245  .00000531  00000+0  73292-4 0  9994
2 43641  97.8848 159.4526 0001577  87.4688 272.6706 14.82155967386721
H-2A R/B                
1 43682U 18084L   25334.77915395  .00018630  00000+0  51454-3 0  9996
2 43682  98.8785 166.3847 0028297   7.4003 352.7648 15.36736368390563
SAOCOM 1B               
1 46265U 20059A   25334.82128003  .00000543  00000+0  74722-4 0  9997
2 46265  97.8844 158.5181 0001358  90.5276 269.6093 14.82164665284103
CSS (TIANHE)            
1 48274U 21035A   25334.73382892  .00016075  00000+0  20845-3 0  9995
2 48274  41.4667  89.5523 0010491 301.4921  58.4891 15.58437522262155
COSMOS 2550             
1 48865U 21056A   25333.81495336 -.00000143  00000+0  14678-5 0  9999
2 48865  67.1430 343.0291 0008393 269.4513  90.5680 15.33825458248140
CZ-2C R/B               
1 52794U 22058K   25334.73671633  .00029435  00000+0  54299-3 0  9991
2 52794  50.1898 104.7222 0046850 148.8667 211.5091 15.47610921194774
CZ-2C R/B               
1 54039U 22132E   25334.43816726  .00030275  00000+0  46839-3 0  9994
2 54039  97.2950 330.4126 0023996  97.0852 263.3132 15.53682692174924
GSLV R/B                
1 54149U 22138AN  25334.61553875  .00002491  00000+0  21840-3 0  9999
2 54149  87.3841 199.5331 0022899 145.8822 214.3887 14.96030049169114
XRISM                   
1 57800U 23137A   25334.80555177  .00005577  00000+0  32755-3 0  9999
2 57800  31.0005 202.5891 0007591 124.3400 235.7957 15.10169631122820
ACS3                    
1 59588U 24077B   25334.83428362  .00037723  00000+0  32724-1 0  9998
2 59588  97.2792 293.0959 0075930   1.8449 358.2978 13.84599297 80490
